TIROS N [P]             
1 11060U 78096A   08218.95296449 -.00000012  00000-0  16157-4 0  9634
2 11060  98.8831 182.6828 0010206 192.2657 167.8270 14.17456666754297
NOAA 1 [-]              
1 04793U 70106A   08218.94545172 -.00000031  00000-0  10000-3 0   768
2 04793 102.0345 198.5203 0032202 317.7947  42.0645 12.53920423723403
NOAA 2 [-]              
1 06235U 72082A   08219.17481059 -.00000027  00000-0  10000-3 0  1525
2 06235 101.4319 243.3498 0003632 174.4522 185.6592 12.52998532638019
NOAA 3 [-]              
1 06920U 73086A   08218.95662711 -.00000030  00000-0  10000-3 0   480
2 06920 101.7566 246.3841 0006561  46.8576 313.3036 12.40290481573192
NOAA 4 [-]              
1 07529U 74089A   08218.96215527 -.00000027  00000-0  10000-3 0   734
2 07529 101.4787 248.8084 0008658 210.7751 149.2812 12.53056735542563
NOAA 5 [-]              
1 09057U 76077A   08218.69759153 -.00000031  00000-0  10000-3 0  9306
2 09057 101.9687 262.3493 0009160 214.5931 145.4535 12.37866692447445
NOAA 6 [P]              
1 11416U 79057A   08219.11060345  .00000020  00000-0  23194-4 0  6195
2 11416  98.4259 237.3914 0011055 112.5840 247.6510 14.31876000516629
NOAA 7 [-]              
1 12553U 81059A   08219.87444200 -.00000023  00000-0  93966-5 0  7440
2 12553  98.6055 176.8642 0011929 136.0489 224.1635 14.16748985401021
NOAA 8 [-]              
1 13923U 83022A   08219.74967389  .00000009  00000-0  21510-4 0  6333
2 13923  98.5962 249.3188 0015020 312.5462  47.4453 14.27677752319980
NOAA 9 [P]              
1 15427U 84123A   08219.55053524 -.00000077  00000-0 -18679-4 0  2978
2 15427  98.4351 228.0436 0014004 244.8668 115.1047 14.15295529220458
NOAA 10 [-]             
1 16969U 86073A   08219.41561552 -.00000042  00000-0  85067-6 0  2367
2 16969  98.7206 241.2806 0013005  38.3417 321.8689 14.27365099138604
NOAA 11 [-]             
1 19531U 88089A   08219.09400946  .00000040  00000-0  43578-4 0  2688
2 19531  98.7982 307.7239 0010756 287.7957  72.2041 14.14873904 24967
NOAA 12 [B]             
1 21263U 91032A   08219.59733456  .00000028  00000-0  30578-4 0  7839
2 21263  98.7684 221.5473 0012510 344.7062  15.3735 14.25541389895577
NOAA 13 [-]             
1 22739U 93050A   08219.90648855 -.00000004  00000-0  22227-4 0  4950
2 22739  98.8998 296.8848 0010010  14.4844 345.6614 14.12203235772602
NOAA 14 [-]             
1 23455U 94089A   08219.44321270 -.00000100  00000-0 -29212-4 0  2550
2 23455  98.9432 291.7093 0009376   8.4808 351.6505 14.13746127701458
NOAA 15 [+]             
1 25338U 98030A   08219.07991223  .00000195  00000-0  10235-3 0  5731
2 25338  98.5566 209.6766 0009478 255.6262 104.3888 14.24719449531909
NOAA 16 [+]             
1 26536U 00055A   08219.35917196 -.00000107  00000-0 -32629-4 0   451
2 26536  99.1606 209.6428 0011572  84.6798 275.5663 14.12492540405852
NOAA 17 [+]             
1 27453U 02032A   08219.15150021  .00000139  00000-0  79095-4 0   407
2 27453  98.5303 282.3233 0011124 327.0217  33.0298 14.23993194317916
NOAA 18 [+]             
1 28654U 05018A   08219.46435168  .00000377  00000-0  23334-3 0  5324
2 28654  98.8678 159.7798 0014586 168.0907 192.0606 14.11183745165566
